{
 "generated_at": "2026-07-24T07:31:19Z",
 "sources": [
  {
   "name": "CelesTrak",
   "url": "https://celestrak.org/NORAD/elements/",
   "license": "frei verfügbar; Attribution. Ursprünglich USSPACECOM/Space-Track."
  },
  {
   "name": "GCAT (J. McDowell, planet4589.org)",
   "url": "https://planet4589.org/space/gcat/",
   "license": "CC-BY 4.0"
  }
 ],
 "satellites": [
  {
   "norad": 60541,
   "name": "UMBRA-09",
   "intl": "2024-149CB",
   "group": "sar",
   "gcat": {
    "class": "B",
    "category": "IMG-R",
    "owner": "UMBRA",
    "state": "US"
   },
   "omm": {
    "OBJECT_NAME": "UMBRA-09",
    "OBJECT_ID": "2024-149CB",
    "EPOCH": "2026-07-23T12:09:14.769216",
    "MEAN_MOTION": 15.19041217,
    "ECCENTRICITY": 0.0002156,
    "INCLINATION": 97.6968,
    "RA_OF_ASC_NODE": 292.3595,
    "ARG_OF_PERICENTER": 184.1579,
    "MEAN_ANOMALY": 175.9637,
    "EPHEMERIS_TYPE": 0,
    "CLASSIFICATION_TYPE": "U",
    "NORAD_CAT_ID": 60541,
    "ELEMENT_SET_NO": 999,
    "REV_AT_EPOCH": 10623,
    "BSTAR": 0.00078713,
    "MEAN_MOTION_DOT": 0.00016444,
    "MEAN_MOTION_DDOT": 0
   }
  },
  {
   "norad": 60547,
   "name": "UMBRA-10",
   "intl": "2024-149CH",
   "group": "sar",
   "gcat": {
    "class": "B",
    "category": "IMG-R",
    "owner": "UMBRA",
    "state": "US"
   },
   "omm": {
    "OBJECT_NAME": "UMBRA-10",
    "OBJECT_ID": "2024-149CH",
    "EPOCH": "2026-07-23T16:53:09.996288",
    "MEAN_MOTION": 15.19051522,
    "ECCENTRICITY": 0.0002159,
    "INCLINATION": 97.6971,
    "RA_OF_ASC_NODE": 292.5913,
    "ARG_OF_PERICENTER": 151.575,
    "MEAN_ANOMALY": 208.5602,
    "EPHEMERIS_TYPE": 0,
    "CLASSIFICATION_TYPE": "U",
    "NORAD_CAT_ID": 60547,
    "ELEMENT_SET_NO": 999,
    "REV_AT_EPOCH": 10627,
    "BSTAR": 0.00081168,
    "MEAN_MOTION_DOT": 0.00016966,
    "MEAN_MOTION_DDOT": 0
   }
  },
  {
   "norad": 66748,
   "name": "UMBRA-11",
   "intl": "2025-276CL",
   "group": "sar",
   "gcat": {
    "class": "B",
    "category": "IMG-R",
    "owner": "UMBRA",
    "state": "US"
   },
   "omm": {
    "OBJECT_NAME": "UMBRA-11",
    "OBJECT_ID": "2025-276CL",
    "EPOCH": "2026-07-23T03:46:53.330880",
    "MEAN_MOTION": 15.28018804,
    "ECCENTRICITY": 0.00033103,
    "INCLINATION": 97.4181,
    "RA_OF_ASC_NODE": 278.596,
    "ARG_OF_PERICENTER": 165.5406,
    "MEAN_ANOMALY": 194.5929,
    "EPHEMERIS_TYPE": 0,
    "CLASSIFICATION_TYPE": "U",
    "NORAD_CAT_ID": 66748,
    "ELEMENT_SET_NO": 999,
    "REV_AT_EPOCH": 3598,
    "BSTAR": 0.00083777656,
    "MEAN_MOTION_DOT": 0.00022872,
    "MEAN_MOTION_DDOT": 0
   }
  },
  {
   "norad": 67371,
   "name": "UMBRA-12",
   "intl": "2026-004J",
   "group": "sar",
   "gcat": {
    "class": "B",
    "category": "IMG-R",
    "owner": "UMBRA",
    "state": "US"
   },
   "omm": {
    "OBJECT_NAME": "UMBRA-12",
    "OBJECT_ID": "2026-004J",
    "EPOCH": "2026-07-23T10:50:06.742752",
    "MEAN_MOTION": 14.8958216,
    "ECCENTRICITY": 0.00067163,
    "INCLINATION": 97.8032,
    "RA_OF_ASC_NODE": 202.7271,
    "ARG_OF_PERICENTER": 29.9235,
    "MEAN_ANOMALY": 330.2366,
    "EPHEMERIS_TYPE": 0,
    "CLASSIFICATION_TYPE": "U",
    "NORAD_CAT_ID": 67371,
    "ELEMENT_SET_NO": 999,
    "REV_AT_EPOCH": 2870,
    "BSTAR": 0.0004368292,
    "MEAN_MOTION_DOT": 0.00004116,
    "MEAN_MOTION_DDOT": 0
   }
  },
  {
   "norad": 39160,
   "name": "VNREDSAT 1",
   "intl": "2013-021B",
   "group": "resource",
   "gcat": {
    "class": "C",
    "category": "IMG",
    "owner": "VAST",
    "state": "VN"
   },
   "omm": {
    "OBJECT_NAME": "VNREDSAT 1",
    "OBJECT_ID": "2013-021B",
    "EPOCH": "2026-07-23T20:06:23.569056",
    "MEAN_MOTION": 14.64889117,
    "ECCENTRICITY": 0.0001522,
    "INCLINATION": 97.9062,
    "RA_OF_ASC_NODE": 256.8436,
    "ARG_OF_PERICENTER": 81.8559,
    "MEAN_ANOMALY": 278.2817,
    "EPHEMERIS_TYPE": 0,
    "CLASSIFICATION_TYPE": "U",
    "NORAD_CAT_ID": 39160,
    "ELEMENT_SET_NO": 999,
    "REV_AT_EPOCH": 70565,
    "BSTAR": 0.000059215,
    "MEAN_MOTION_DOT": 0.00000271,
    "MEAN_MOTION_DDOT": 0
   }
  },
  {
   "norad": 32060,
   "name": "WORLDVIEW-1 (WV-1)",
   "intl": "2007-041A",
   "group": "resource",
   "gcat": {
    "class": "B",
    "category": "IMG",
    "owner": "DGLO",
    "state": "US"
   },
   "omm": {
    "OBJECT_NAME": "WORLDVIEW-1 (WV-1)",
    "OBJECT_ID": "2007-041A",
    "EPOCH": "2026-07-23T18:53:54.002112",
    "MEAN_MOTION": 15.24631277,
    "ECCENTRICITY": 0.0002355,
    "INCLINATION": 97.3901,
    "RA_OF_ASC_NODE": 324.0214,
    "ARG_OF_PERICENTER": 174.6972,
    "MEAN_ANOMALY": 185.4291,
    "EPHEMERIS_TYPE": 0,
    "CLASSIFICATION_TYPE": "U",
    "NORAD_CAT_ID": 32060,
    "ELEMENT_SET_NO": 999,
    "REV_AT_EPOCH": 4845,
    "BSTAR": 0.0002264,
    "MEAN_MOTION_DOT": 0.00005516,
    "MEAN_MOTION_DDOT": 0
   }
  },
  {
   "norad": 35946,
   "name": "WORLDVIEW-2 (WV-2)",
   "intl": "2009-055A",
   "group": "resource",
   "gcat": {
    "class": "B",
    "category": "IMG",
    "owner": "DGLO",
    "state": "US"
   },
   "omm": {
    "OBJECT_NAME": "WORLDVIEW-2 (WV-2)",
    "OBJECT_ID": "2009-055A",
    "EPOCH": "2026-07-23T20:03:09.470592",
    "MEAN_MOTION": 14.3790876,
    "ECCENTRICITY": 0.0005555,
    "INCLINATION": 98.475,
    "RA_OF_ASC_NODE": 277.786,
    "ARG_OF_PERICENTER": 109.3414,
    "MEAN_ANOMALY": 250.8374,
    "EPHEMERIS_TYPE": 0,
    "CLASSIFICATION_TYPE": "U",
    "NORAD_CAT_ID": 35946,
    "ELEMENT_SET_NO": 999,
    "REV_AT_EPOCH": 88091,
    "BSTAR": 0.000041758,
    "MEAN_MOTION_DOT": 8.3e-7,
    "MEAN_MOTION_DDOT": 0
   }
  },
  {
   "norad": 40115,
   "name": "WORLDVIEW-3 (WV-3)",
   "intl": "2014-048A",
   "group": "resource",
   "gcat": {
    "class": "B",
    "category": "IMG",
    "owner": "DGLO",
    "state": "US"
   },
   "omm": {
    "OBJECT_NAME": "WORLDVIEW-3 (WV-3)",
    "OBJECT_ID": "2014-048A",
    "EPOCH": "2026-07-23T19:43:04.263168",
    "MEAN_MOTION": 14.85074303,
    "ECCENTRICITY": 0.0001903,
    "INCLINATION": 97.855,
    "RA_OF_ASC_NODE": 279.1465,
    "ARG_OF_PERICENTER": 142.2739,
    "MEAN_ANOMALY": 217.861,
    "EPHEMERIS_TYPE": 0,
    "CLASSIFICATION_TYPE": "U",
    "NORAD_CAT_ID": 40115,
    "ELEMENT_SET_NO": 999,
    "REV_AT_EPOCH": 64734,
    "BSTAR": 0.000086724,
    "MEAN_MOTION_DOT": 0.00000688,
    "MEAN_MOTION_DDOT": 0
   }
  },
  {
   "norad": 36834,
   "name": "YAOGAN-10",
   "intl": "2010-038A",
   "group": "resource",
   "gcat": {
    "class": null,
    "category": null,
    "owner": null,
    "state": null
   },
   "omm": {
    "OBJECT_NAME": "YAOGAN-10",
    "OBJECT_ID": "2010-038A",
    "EPOCH": "2026-07-23T20:57:54.153216",
    "MEAN_MOTION": 14.85448658,
    "ECCENTRICITY": 0.0001632,
    "INCLINATION": 97.8979,
    "RA_OF_ASC_NODE": 227.9857,
    "ARG_OF_PERICENTER": 84.881,
    "MEAN_ANOMALY": 38.2674,
    "EPHEMERIS_TYPE": 0,
    "CLASSIFICATION_TYPE": "U",
    "NORAD_CAT_ID": 36834,
    "ELEMENT_SET_NO": 999,
    "REV_AT_EPOCH": 86265,
    "BSTAR": 0.00013959,
    "MEAN_MOTION_DOT": 0.00001149,
    "MEAN_MOTION_DDOT": 0
   }
  },
  {
   "norad": 40143,
   "name": "YAOGAN-21",
   "intl": "2014-053A",
   "group": "resource",
   "gcat": {
    "class": "D",
    "category": "IMG",
    "owner": "ZZB",
    "state": "CN"
   },
   "omm": {
    "OBJECT_NAME": "YAOGAN-21",
    "OBJECT_ID": "2014-053A",
    "EPOCH": "2026-07-23T20:50:32.002080",
    "MEAN_MOTION": 15.2684129,
    "ECCENTRICITY": 0.0006661,
    "INCLINATION": 97.1462,
    "RA_OF_ASC_NODE": 243.5369,
    "ARG_OF_PERICENTER": 335.9239,
    "MEAN_ANOMALY": 24.1688,
    "EPHEMERIS_TYPE": 0,
    "CLASSIFICATION_TYPE": "U",
    "NORAD_CAT_ID": 40143,
    "ELEMENT_SET_NO": 999,
    "REV_AT_EPOCH": 66055,
    "BSTAR": 0.00019844,
    "MEAN_MOTION_DOT": 0.00005166,
    "MEAN_MOTION_DDOT": 0
   }
  }
 ]
}
